     2.100          NAVIGATION                              RINEX VERSION / TYPE
fic2rin                                 08/03/2013 00:21:04 PGM / RUN BY / DATE
                                                            END OF HEADER
15 13  8  2 12  0  0.0 -.130366068333D-03 -.170530256582D-11  .000000000000D+00
     .750000000000D+02  .623437500000D+02  .487341728311D-08 -.184571846769D+01
     .294297933578D-05  .548949604854D-02  .926665961742D-05  .515380393982D+04
     .475200000000D+06  .372529029846D-08 -.531275682039D+00 -.894069671631D-07
     .940165072689D+00  .191187500000D+03  .161924881141D+00 -.806033574534D-08
    -.553594488004D-10  .100000000000D+01  .175100000000D+04  .000000000000D+00
     .240000000000D+01  .000000000000D+00 -.977888703346D-08  .750000000000D+02
     .468006000000D+06  .400000000000D+01
16 13  8  2 12  0  0.0 -.249297823757D-03  .568434188608D-12  .000000000000D+00
     .880000000000D+02 -.801250000000D+02  .409159900295D-08 -.110612157612D+00
    -.424869358540D-05  .709716510028D-02  .412203371525D-05  .515368695831D+04
     .475200000000D+06  .104308128357D-06  .164482302301D+01  .409781932831D-07
     .985212575978D+00  .311906250000D+03  .134947991503D+00 -.810462330438D-08
    -.300369654459D-09  .100000000000D+01  .175100000000D+04  .000000000000D+00
     .340000000000D+01  .000000000000D+00 -.977888703346D-08  .880000000000D+02
     .468006000000D+06  .400000000000D+01
17 13  8  2 12  0  0.0 -.714557245374D-05 -.386535248253D-11  .000000000000D+00
     .320000000000D+02 -.584062500000D+02  .420767526656D-08 -.108157665612D+01
    -.308267772198D-05  .840143475216D-02  .955536961555D-05  .515366854668D+04
     .475200000000D+06  .160187482834D-06  .268098234430D+01  .167638063431D-06
     .966302703781D+00  .200468750000D+03 -.219138488528D+01 -.785997025645D-08
     .389301930274D-10  .100000000000D+01  .175100000000D+04  .000000000000D+00
     .240000000000D+01  .000000000000D+00 -.102445483208D-07  .320000000000D+02
     .468006000000D+06  .400000000000D+01
18 13  8  2 12  0  0.0  .266681425273D-03  .193267624127D-11  .000000000000D+00
     .780000000000D+02 -.575000000000D+01  .552022993973D-08  .419635433877D+00
    -.342726707458D-06  .145842157071D-01  .700168311596D-05  .515361548805D+04
     .475200000000D+06 -.219792127609D-06 -.154990970702D+01  .134110450745D-06
     .926568580398D+00  .228906250000D+03 -.208849307010D+01 -.862357349216D-08
    -.347514475373D-09  .100000000000D+01  .175100000000D+04  .000000000000D+00
     .240000000000D+01  .000000000000D+00 -.107102096081D-07  .780000000000D+02
     .468006000000D+06  .400000000000D+01
20 13  8  2 12  0  0.0  .113136600703D-03  .238742359215D-11  .000000000000D+00
     .720000000000D+02 -.140625000000D+02  .548737142819D-08  .911400046579D+00
    -.849366188049D-06  .540354859550D-02  .637583434582D-05  .515369642067D+04
     .475200000000D+06 -.689178705215D-07 -.160330663824D+01 -.223517417908D-07
     .927372117411D+00  .237156250000D+03  .129076928645D+01 -.856714257016D-08
    -.264653881039D-09  .100000000000D+01  .175100000000D+04  .000000000000D+00
     .240000000000D+01  .000000000000D+00 -.791624188423D-08  .720000000000D+02
     .468006000000D+06  .400000000000D+01
21 13  8  2 12  0  0.0 -.311512965709D-03 -.193267624127D-11  .000000000000D+00
     .430000000000D+02  .471875000000D+01  .537129516457D-08  .144823696342D+01
     .111758708954D-06  .204826303525D-01  .737048685551D-05  .515364717293D+04
     .475200000000D+06 -.437721610069D-06 -.259730196579D+01 -.912696123123D-07
     .931873212054D+00  .229031250000D+03 -.211493975141D+01 -.854249868650D-08
     .217151902391D-09  .100000000000D+01  .175100000000D+04  .000000000000D+00
     .240000000000D+01  .000000000000D+00 -.111758708954D-07  .430000000000D+02
     .468006000000D+06  .400000000000D+01
22 13  8  2 12  0  0.0  .178239308298D-03  .170530256582D-11  .000000000000D+00
     .130000000000D+02 -.728125000000D+01  .554415950793D-08 -.163562154186D+00
    -.357627868652D-06  .680908909999D-02  .695884227753D-05  .515364235306D+04
     .475200000000D+06 -.260770320892D-07 -.154743403563D+01  .115483999252D-06
     .924320948672D+00  .227843750000D+03 -.203577648064D+01 -.853892710916D-08
    -.247510309798D-09  .100000000000D+01  .175100000000D+04  .000000000000D+00
     .240000000000D+01  .000000000000D+00 -.172294676304D-07  .130000000000D+02
     .468006000000D+06  .400000000000D+01
23 13  8  2 12  0  0.0  .612731091678D-04 -.352429196937D-11  .000000000000D+00
     .420000000000D+02  .613437500000D+02  .449268713845D-08 -.232747341599D+01
     .294297933578D-05  .884139677510D-02  .102426856756D-04  .515368310738D+04
     .475200000000D+06 -.558793544769D-08 -.489126730023D+00 -.173225998878D-06
     .955161081653D+00  .183093750000D+03 -.284958136932D+01 -.786639909567D-08
    -.307155651409D-10  .100000000000D+01  .175100000000D+04  .000000000000D+00
     .240000000000D+01  .000000000000D+00 -.200234353542D-07  .420000000000D+02
     .468006000000D+06  .400000000000D+01
24 13  8  2 12  0  0.0 -.110985711217D-04 -.682121026330D-12  .000000000000D+00
     .280000000000D+02  .708437500000D+02  .473019703169D-08 -.312629574871D+01
     .368803739548D-05  .949806650169D-03  .374764204025D-05  .515366749573D+04
     .475200000000D+06  .186264514923D-08  .537013634419D+00 -.111758708954D-07
     .958852651559D+00  .306781250000D+03  .336629914101D+00 -.824498629392D-08
     .163221084528D-09  .100000000000D+01  .175100000000D+04  .000000000000D+00
     .240000000000D+01  .000000000000D+00  .325962901115D-08  .280000000000D+02
     .468006000000D+06  .400000000000D+01
25 13  8  2 12  0  0.0  .130325555801D-03  .488853402203D-11  .000000000000D+00
     .600000000000D+02 -.763125000000D+02  .439625455022D-08  .109343022782D+01
    -.389479100704D-05  .275719515048D-02  .429525971413D-05  .515374754524D+04
     .475200000000D+06  .204890966415D-07  .158736184790D+01  .987201929092D-07
     .973344559434D+00  .301968750000D+03  .740660387661D+00 -.821069915143D-08
    -.266439669710D-09  .100000000000D+01  .175100000000D+04  .000000000000D+00
     .240000000000D+01  .000000000000D+00  .558793544769D-08  .600000000000D+02
     .468006000000D+06  .400000000000D+01
26 13  8  2 12  0  0.0  .124037731439D-03  .171667124960D-10  .000000000000D+00
     .940000000000D+02  .810937500000D+02  .393802117725D-08 -.233304252422D+01
     .399537384510D-05  .210512579652D-01  .894814729691D-05  .515369386292D+04
     .475200000000D+06  .277534127235D-06 -.407148829737D+00 -.558793544769D-08
     .978437013840D+00  .211593750000D+03  .124815109322D+01 -.734316301507D-08
     .889322758148D-10  .100000000000D+01  .175100000000D+04  .000000000000D+00
     .240000000000D+01  .000000000000D+00 -.558793544769D-08  .940000000000D+02
     .468006000000D+06  .400000000000D+01
27 13  8  2 12  0  0.0 -.186813995242D-04 -.488853402203D-11  .000000000000D+00
     .910000000000D+02 -.737812500000D+02  .418267422517D-08 -.186737922274D+01
    -.374205410480D-05  .346994725987D-03  .989064574242D-05  .515366847420D+04
     .475200000000D+06  .745058059692D-08  .263736557782D+01 -.242143869400D-07
     .960864378967D+00  .191281250000D+03  .888632386260D+00 -.778568144774D-08
     .789318592573D-10  .100000000000D+01  .175100000000D+04  .000000000000D+00
     .340000000000D+01  .000000000000D+00  .186264514923D-08  .910000000000D+02
     .468006000000D+06  .400000000000D+01
28 13  8  2 12  0  0.0  .280810520053D-03  .318323145621D-11  .000000000000D+00
     .400000000000D+02 -.646562500000D+02  .421517557898D-08 -.294801287017D+00
    -.334531068802D-05  .186525306199D-01  .454857945442D-05  .515365141296D+04
     .475200000000D+06 -.184401869774D-06  .165099029942D+01  .987201929092D-07
     .983669545579D+00  .305593750000D+03 -.176559636383D+01 -.840213569696D-08
    -.216794744657D-09  .100000000000D+01  .175100000000D+04  .000000000000D+00
     .240000000000D+01  .000000000000D+00 -.107102096081D-07  .400000000000D+02
     .468006000000D+06  .400000000000D+01
29 13  8  2 12  0  0.0  .458789523691D-03  .318323145621D-11  .000000000000D+00
     .220000000000D+02 -.558750000000D+02  .416124476112D-08  .170779566884D+01
    -.295042991638D-05  .163113488816D-02  .994652509689D-05  .515361094093D+04
     .475200000000D+06  .372529029846D-07  .268981389151D+01  .540167093277D-07
     .966962400837D+00  .189281250000D+03 -.970061387979D+00 -.774889420112D-08
     .162149611325D-09  .100000000000D+01  .175100000000D+04  .000000000000D+00
     .240000000000D+01  .000000000000D+00 -.931322574615D-08  .220000000000D+02
     .468006000000D+06  .400000000000D+01
30 13  8  2 12  0  0.0 -.168204307556D-03  .102318153949D-11  .000000000000D+00
     .820000000000D+02 -.806250000000D+02  .561487673930D-08 -.169003451649D+00
    -.411272048950D-05  .637752341572D-02  .402517616749D-05  .515369380379D+04
     .475200000000D+06 -.186264514923D-08  .160430286204D+01  .670552253723D-07
     .978158468386D+00  .307406250000D+03  .885232832358D+00 -.823891461244D-08
    -.296440919383D-09  .100000000000D+01  .175100000000D+04  .000000000000D+00
     .340000000000D+01  .630000000000D+02 -.190921127796D-07  .820000000000D+02
     .468006000000D+06  .400000000000D+01
32 13  8  2 12  0  0.0 -.556455459446D-03  .136424205266D-11  .000000000000D+00
     .570000000000D+02 -.934375000000D+01  .481984362298D-08  .288776034788D+01
    -.415369868279D-06  .115731045371D-01  .734068453312D-05  .515362897873D+04
     .475200000000D+06 -.150874257088D-06 -.146213078211D+01  .117346644402D-06
     .948506363863D+00  .228062500000D+03 -.326490987729D+00 -.799747598412D-08
    -.306084178206D-09  .100000000000D+01  .175100000000D+04  .000000000000D+00
     .240000000000D+01  .000000000000D+00 -.279396772385D-08  .570000000000D+02
     .468006000000D+06  .400000000000D+01
